OBJECT_NAME,OBJECT_ID,EPOCH,MEAN_MOTION,ECCENTRICITY,INCLINATION,RA_OF_ASC_NODE,ARG_OF_PERICENTER,MEAN_ANOMALY,EPHEMERIS_TYPE,CLASSIFICATION_TYPE,NORAD_CAT_ID,ELEMENT_SET_NO,REV_AT_EPOCH,BSTAR,MEAN_MOTION_DOT,MEAN_MOTION_DDOT
CUTE-1 (CO-55),2003-031E,2026-07-19T11:47:49.065504,14.24353085,.00108686,98.6745,208.6450,91.6414,268.6010,0,U,27844,999,19627,.70117916E-4,.118E-5,0
CUBESAT XI-IV (CO-57),2003-031J,2026-07-19T11:54:35.074656,14.23635874,.00106546,98.6776,208.3362,108.0973,252.1367,0,U,27848,999,19597,.61251528E-4,.96E-6,0
CUBESAT XI-V,2005-043F,2026-07-19T09:42:23.487264,14.72708170,.00153474,98.3022,356.7103,102.9295,257.3627,0,U,28895,999,10649,.10669037E-3,.628E-5,0
CUTE-1.7+APD II (CO-65),2008-021C,2026-07-19T14:17:25.415520,15.09721824,.00068286,97.8299,182.6987,281.1298,78.9163,0,U,32785,999,99008,.12438356E-3,.1938E-4,0
CANX-2,2008-021H,2026-07-19T10:51:05.398848,15.05818132,.00086221,97.8659,180.8656,300.9362,59.1016,0,U,32790,999,98966,.93574337E-4,.1292E-4,0
SEEDS II (CO-66),2008-021J,2026-07-19T10:33:17.970048,15.33752550,.00035468,97.7533,199.9049,147.5625,212.5835,0,U,32791,999,99223,.29357782E-3,.95E-4,0
SWISSCUBE,2009-051B,2026-07-19T12:42:24.895584,14.62535142,.00080117,98.4003,108.9777,107.5218,252.6859,0,U,35932,999,89388,.93264263E-4,.424E-5,0
BEESAT-1,2009-051C,2026-07-19T06:46:06.075264,14.61765433,.00063308,98.3929,108.2939,119.2853,240.8981,0,U,35933,999,89387,.83262274E-4,.366E-5,0
ITUPSAT1,2009-051E,2026-07-19T07:13:30.992160,14.60482021,.0008328,98.4014,107.4706,131.6954,228.4959,0,U,35935,999,89342,.78496662E-4,.332E-5,0
TISAT 1,2010-035E,2026-07-19T07:28:11.488512,15.32826341,.00047201,98.0713,149.7423,111.8799,248.2944,0,U,36799,999,87262,.33238822E-3,.10455E-3,0
STRAND-1,2013-009E,2026-07-19T11:59:22.083360,14.37180292,.00096104,98.3939,19.9412,129.5054,230.6984,0,U,39090,999,70170,.50736694E-4,.108E-5,0
BRITE-AUSTRIA,2013-009F,2026-07-19T10:57:49.017312,14.36553452,.00109845,98.4012,19.0965,138.8360,221.3657,0,U,39091,999,70168,.35165936E-4,.61E-6,0
NEE-01 PEGASO,2013-018B,2026-07-19T08:27:34.655616,14.93800794,.00135702,98.1263,345.5756,62.0509,298.2082,0,U,39151,999,71550,.14615917E-3,.1491E-4,0
POPACS 2,2013-055E,2026-07-19T04:11:20.657760,14.92128884,.04145874,80.9910,107.5625,91.1196,273.7536,0,U,39269,999,66798,.22340112E-3,.1374E-3,-.929848E-6
POPACS 3,2013-055F,2026-07-19T09:46:31.372320,14.56727330,.05482301,81.0009,194.2319,331.8183,25.4302,0,U,39270,999,64324,.17175973E-3,.7218E-4,0
ZACUBE-1 (TSHEPISOSAT),2013-066B,2026-07-19T11:12:15.025248,15.01340040,.00440746,97.8002,162.9610,141.4963,218.9420,0,U,39417,999,68557,.10340189E-3,.1295E-4,0
WNISAT-1,2013-066H,2026-07-19T09:30:32.580288,14.58125216,.01640951,97.7241,347.2727,130.1631,231.4073,0,U,39423,999,67142,.10875809E-3,.555E-5,0
TRITON-1,2013-066M,2026-07-19T13:47:28.025088,14.81803375,.00909227,97.8218,109.6410,128.0143,232.9323,0,U,39427,999,67888,.10416906E-3,.827E-5,0
GOMX-1,2013-066Q,2026-07-19T14:19:39.229248,14.69548620,.01278312,97.6464,39.0142,334.0447,25.4384,0,U,39430,999,67467,.10611431E-3,.66E-5,0
CUBEBUG-2 (LO-74),2013-066AA,2026-07-19T09:57:11.827872,14.93984149,.00555526,97.8920,149.5375,281.0700,78.4276,0,U,39440,999,68180,.17976041E-3,.191E-4,0
NEE-02 KRYSAOR,2013-066AB,2026-07-19T09:08:08.950560,14.86748666,.00650447,97.8896,139.3698,325.4301,34.2693,0,U,39441,999,68098,.11804068E-3,.1031E-4,0
FUNCUBE-1 (AO-73),2013-066AE,2026-07-19T11:13:47.831808,15.09853025,.00380098,97.8299,172.5997,93.7794,266.7781,0,U,39444,999,68453,.26567152E-3,.4303E-4,0
UWE-3,2013-066AG,2026-07-19T10:19:50.663136,14.97216655,.00476586,97.8723,156.7295,209.9305,149.9190,0,U,39446,999,68240,.18243742E-3,.2096E-4,0
BRITE-CA1 (TORONTO),2014-033L,2026-07-19T07:27:57.492576,14.72727256,.00787895,97.9776,328.6539,173.0970,187.1343,0,U,40020,999,64694,.8628879E-4,.524E-5,0
DUCHIFAT-1,2014-033M,2026-07-19T02:50:23.823456,15.71786235,.00032981,98.0414,263.9486,230.7218,129.3750,0,U,40021,999,66075,.73778873E-3,.96187E-3,0
NANOSATC-BR1,2014-033Q,2026-07-19T08:11:35.545632,15.32407488,.00051454,98.0708,235.6013,86.7681,273.4148,0,U,40024,999,65890,.28662522E-3,.8884E-4,0
QB50P1,2014-033R,2026-07-19T07:22:28.507296,15.18701826,.00105077,98.0971,213.7167,112.7163,247.5182,0,U,40025,999,65790,.2101421E-3,.4287E-4,0
QB50P2,2014-033Y,2026-07-19T12:31:27.833952,15.15540194,.00092096,98.0770,199.4267,71.8039,288.4193,0,U,40032,999,65756,.18646868E-3,.3463E-4,0
PERSEUS-M2,2014-033AD,2026-07-19T13:54:22.732128,14.95590987,.00112184,97.9986,151.7852,185.0641,175.0468,0,U,40037,999,65562,-.18971382E-4,-.272E-5,0
PERSEUS-M1,2014-033AF,2026-07-19T09:58:59.763936,14.95723392,.00112101,97.9655,145.0810,182.4101,177.7067,0,U,40039,999,65545,.49781578E-4,.494E-5,0
